HELIOS 1B               
1 25977U 99064A   26092.65725830  .00002151  00000+0  24193-3 0  9993
2 25977  98.1673 355.6027 0001592  45.4257 314.7088 14.87792668688829
TERRA                   
1 25994U 99068A   26092.83343264  .00000697  00000+0  15100-3 0  9994
2 25994  97.9542 145.3398 0003661 101.8147  17.9302 14.61041800398601
SL-16 R/B               
1 26070U 00006B   26092.61001832  .00000173  00000+0  11225-3 0  9995
2 26070  71.0035  47.5371 0015361 152.3192 207.8752 14.15830286351940
TITAN 4B R/B            
1 26474U 00047B   26092.87887376  .00006058  00000+0  37512-3 0  9996
2 26474  67.9907 332.4827 0040170   7.0395 353.1309 15.09791101396565
ENVISAT                 
1 27386U 02009A   26092.86914762  .00000149  00000+0  62188-4 0  9991
2 27386  98.3769  45.8968 0001203  82.2037 291.3890 14.39045523262657
IDEFIX & ARIANE 42P R/B 
1 27422U 02021B   26092.82786824  .00000439  00000+0  18323-3 0  9991
2 27422  98.5898  31.1497 0012824 113.8354 246.4175 14.31043524247473
AQUA                    
1 27424U 02022A   26092.90490580  .00001579  00000+0  32447-3 0  9993
2 27424  98.4216  60.7186 0001329 115.9286 266.8537 14.62035849272275
CZ-4B R/B               
1 27432U 02024C   26092.40459576  .00000078  00000+0  63195-4 0  9997
2 27432  98.8786 145.6863 0049329 316.5339  53.4279 14.14551994232590
MIDORI II (ADEOS-II)    
1 27597U 02056A   26092.88518450  .00000494  00000+0  21211-3 0  9997
2 27597  98.7811  51.5364 0000475  21.5280 338.5921 14.29304650213757
H-2A R/B                
1 27601U 02056E   26092.66575434  .00000391  00000+0  15105-3 0  9995
2 27601  98.3245  52.1247 0071442  90.1278  82.6334 14.33777565217548
CZ-4B R/B               
1 28059U 03049C   26092.72720096  .00000449  00000+0  11429-3 0  9998
2 28059  98.6896  88.5790 0048582 157.0932 203.2445 14.55042200190095
CZ-2C R/B               
1 28222U 04012C   26092.63572758  .00070965  00000+0  64756-3 0  9992
2 28222  97.7172 160.2446 0013510 215.5005 144.5357 15.67539256208022
SL-16 R/B               
1 28353U 04021B   26092.71146074  .00000369  00000+0  21667-3 0  9999
2 28353  71.0011 182.0825 0005286 339.8426  20.2486 14.14598383126237
CZ-4B R/B               
1 28415U 04035C   26092.33416415  .00011245  00000+0  39052-3 0  9992
2 28415  97.3455 126.2948 0030189 242.9987 116.8171 15.29486524183529
CZ-2D R/B               
1 28738U 05024B   26092.29623543  .00063445  00000+0  71388-3 0  9993
2 28738  97.3564 108.3444 0001822 300.0803  60.0274 15.62381263143469
